start=new Date('2021-12-23T00:00:00.000Z').valueOf();
sats=[{"MEAN_ANOMALY":"284.6000","COUNTRY_CODE":"US","CLASSIFICATION_TYPE":"U","FILE":"3247523","RA_OF_ASC_NODE":"46.6994","NORAD_CAT_ID":"48401","PERIOD":"95.593","MEAN_MOTION":"15.06390046","REF_FRAME":"TEME","GP_ID":"192218284","BSTAR":"-0.00007294000000","MEAN_MOTION_DDOT":"0.0000000000000","TLE_LINE1":"1 48401U 21038BA  21356.52697509 -.00001367  00000-0 -72940-4 0  9996","OBJECT_ID":"2021-038BA","ELEMENT_SET_NO":"999","RCS_SIZE":"LARGE","PERIAPSIS":"546.281","ARG_OF_PERICENTER":"75.5143","EPHEMERIS_TYPE":"0","EPOCH":"2021-12-22T12:38:50.647776","DECAY_DATE":null,"SITE":"AFETR","MEAN_ELEMENT_THEORY":"SGP4","INCLINATION":"53.0566","TIME_SYSTEM":"UTC","LAUNCH_DATE":"2021-05-04","CENTER_NAME":"EARTH","SEMIMAJOR_AXIS":"6925.379","OBJECT_NAME":"STARLINK-2571","MEAN_MOTION_DOT":"-0.00001367","APOAPSIS":"548.207","TLE_LINE2":"2 48401  53.0566  46.6994 0001390  75.5143 284.6000 15.06390046 35462","OBJECT_TYPE":"PAYLOAD","ECCENTRICITY":"0.00013900","REV_AT_EPOCH":"3546"},{"SEMIMAJOR_AXIS":"6925.367","OBJECT_NAME":"STARLINK-2560","MEAN_MOTION_DOT":"0.00004173","APOAPSIS":"548.248","TLE_LINE2":"2 48402  53.0563  47.1821 0001467  78.4962 281.6192 15.06394114 35459","OBJECT_TYPE":"PAYLOAD","ECCENTRICITY":"0.00014670","REV_AT_EPOCH":"3545","EPOCH":"2021-12-22T10:06:15.910272","DECAY_DATE":null,"SITE":"AFETR","MEAN_ELEMENT_THEORY":"SGP4","INCLINATION":"53.0563","LAUNCH_DATE":"2021-05-04","TIME_SYSTEM":"UTC","CENTER_NAME":"EARTH","REF_FRAME":"TEME","GP_ID":"192218033","BSTAR":"0.00029895000000","MEAN_MOTION_DDOT":"0.0000000000000","TLE_LINE1":"1 48402U 21038BB  21356.42101748  .00004173  00000-0  29895-3 0  9997","OBJECT_ID":"2021-038BB","ELEMENT_SET_NO":"999","RCS_SIZE":"LARGE","PERIAPSIS":"546.216","ARG_OF_PERICENTER":"78.4962","EPHEMERIS_TYPE":"0","MEAN_ANOMALY":"281.6192","COUNTRY_CODE":"US","CLASSIFICATION_TYPE":"U","FILE":"3247523","RA_OF_ASC_NODE":"47.1821","PERIOD":"95.593","NORAD_CAT_ID":"48402","MEAN_MOTION":"15.06394114"},{"MEAN_ANOMALY":"288.8181","CLASSIFICATION_TYPE":"U","COUNTRY_CODE":"US","RA_OF_ASC_NODE":"46.5854","FILE":"3247523","MEAN_MOTION":"15.06389021","PERIOD":"95.593","NORAD_CAT_ID":"48403","REF_FRAME":"TEME","TLE_LINE1":"1 48403U 21038BC  21356.55003350 -.00001320  00000-0 -69754-4 0  9994","MEAN_MOTION_DDOT":"0.0000000000000","BSTAR":"-0.00006975400000","GP_ID":"192219286","ELEMENT_SET_NO":"999","OBJECT_ID":"2021-038BC","ARG_OF_PERICENTER":"71.2957","EPHEMERIS_TYPE":"0","PERIAPSIS":"546.293","RCS_SIZE":"LARGE","SITE":"AFETR","DECAY_DATE":null,"EPOCH":"2021-12-22T13:12:02.894400","MEAN_ELEMENT_THEORY":"SGP4","INCLINATION":"53.0563","CENTER_NAME":"EARTH","TIME_SYSTEM":"UTC","LAUNCH_DATE":"2021-05-04","SEMIMAJOR_AXIS":"6925.382","OBJECT_NAME":"STARLINK-2561","TLE_LINE2":"2 48403  53.0563  46.5854 0001378  71.2957 288.8181 15.06389021 35475","APOAPSIS":"548.202","MEAN_MOTION_DOT":"-0.00001320","REV_AT_EPOCH":"3547","OBJECT_TYPE":"PAYLOAD","ECCENTRICITY":"0.00013780"},{"OBJECT_NAME":"STARLINK-2593","SEMIMAJOR_AXIS":"6925.367","OBJECT_TYPE":"PAYLOAD","ECCENTRICITY":"0.00014140","REV_AT_EPOCH":"3545","MEAN_MOTION_DOT":"-0.00002751","APOAPSIS":"548.211","TLE_LINE2":"2 48404  53.0549  47.2152 0001414  73.7357 286.3788 15.06393997 35452","MEAN_ELEMENT_THEORY":"SGP4","EPOCH":"2021-12-22T09:55:39.199296","DECAY_DATE":null,"SITE":"AFETR","TIME_SYSTEM":"UTC","LAUNCH_DATE":"2021-05-04","CENTER_NAME":"EARTH","INCLINATION":"53.0549","GP_ID":"192219036","BSTAR":"-0.00016589000000","MEAN_MOTION_DDOT":"0.0000000000000","TLE_LINE1":"1 48404U 21038BD  21356.41364814 -.00002751  00000-0 -16589-3 0  9991","REF_FRAME":"TEME","RCS_SIZE":"LARGE","PERIAPSIS":"546.253","ARG_OF_PERICENTER":"73.7357","EPHEMERIS_TYPE":"0","OBJECT_ID":"2021-038BD","ELEMENT_SET_NO":"999","COUNTRY_CODE":"US","CLASSIFICATION_TYPE":"U","MEAN_ANOMALY":"286.3788","NORAD_CAT_ID":"48404","PERIOD":"95.593","MEAN_MOTION":"15.06393997","FILE":"3247523","RA_OF_ASC_NODE":"47.2152"},{"INCLINATION":"53.0575","CENTER_NAME":"EARTH","LAUNCH_DATE":"2021-05-04","TIME_SYSTEM":"UTC","SITE":"AFETR","DECAY_DATE":null,"EPOCH":"2021-12-22T13:01:26.210208","MEAN_ELEMENT_THEORY":"SGP4","TLE_LINE2":"2 48405  53.0575  46.6334 0001326  83.7380 276.3760 15.06384978 35476","APOAPSIS":"548.178","MEAN_MOTION_DOT":"-0.00001723","REV_AT_EPOCH":"3547","ECCENTRICITY":"0.00013260","OBJECT_TYPE":"PAYLOAD","SEMIMAJOR_AXIS":"6925.395","OBJECT_NAME":"STARLINK-2570","RA_OF_ASC_NODE":"46.6334","FILE":"3247523","MEAN_MOTION":"15.06384978","NORAD_CAT_ID":"48405","PERIOD":"95.593","MEAN_ANOMALY":"276.3760","CLASSIFICATION_TYPE":"U","COUNTRY_CODE":"US","OBJECT_ID":"2021-038BE","ELEMENT_SET_NO":"999","ARG_OF_PERICENTER":"83.7380","EPHEMERIS_TYPE":"0","PERIAPSIS":"546.341","RCS_SIZE":"LARGE","REF_FRAME":"TEME","TLE_LINE1":"1 48405U 21038BE  21356.54266447 -.00001723  00000-0 -96862-4 0  9990","MEAN_MOTION_DDOT":"0.0000000000000","BSTAR":"-0.00009686200000","GP_ID":"192217784"},{"PERIAPSIS":"546.357","EPHEMERIS_TYPE":"0","ARG_OF_PERICENTER":"74.3588","RCS_SIZE":"LARGE","ELEMENT_SET_NO":"999","OBJECT_ID":"2021-038BF","MEAN_MOTION_DDOT":"0.0000000000000","TLE_LINE1":"1 48406U 21038BF  21356.53897114 -.00001180  00000-0 -60317-4 0  9994","GP_ID":"192218534","BSTAR":"-0.00006031700000","REF_FRAME":"TEME","MEAN_MOTION":"15.06396514","PERIOD":"95.592","NORAD_CAT_ID":"48406","RA_OF_ASC_NODE":"46.6384","FILE":"3247523","CLASSIFICATION_TYPE":"U","COUNTRY_CODE":"US","MEAN_ANOMALY":"285.7539","REV_AT_EPOCH":"3547","OBJECT_TYPE":"PAYLOAD","ECCENTRICITY":"0.00012520","APOAPSIS":"548.091","TLE_LINE2":"2 48406  53.0552  46.6384 0001252  74.3588 285.7539 15.06396514 35478","MEAN_MOTION_DOT":"-0.00001180","OBJECT_NAME":"STARLINK-2568","SEMIMAJOR_AXIS":"6925.359","CENTER_NAME":"EARTH","TIME_SYSTEM":"UTC","LAUNCH_DATE":"2021-05-04","INCLINATION":"53.0552","MEAN_ELEMENT_THEORY":"SGP4","SITE":"AFETR","EPOCH":"2021-12-22T12:56:07.106496","DECAY_DATE":null},{"OBJECT_ID":"2021-038BG","ELEMENT_SET_NO":"999","RCS_SIZE":"LARGE","EPHEMERIS_TYPE":"0","ARG_OF_PERICENTER":"82.4946","PERIAPSIS":"546.299","REF_FRAME":"TEME","BSTAR":"-0.00005407600000","GP_ID":"192218786","TLE_LINE1":"1 48407U 21038BG  21356.53528349 -.00001087  00000-0 -54076-4 0  9997","MEAN_MOTION_DDOT":"0.0000000000000","FILE":"3247523","RA_OF_ASC_NODE":"46.6539","PERIOD":"95.593","NORAD_CAT_ID":"48407","MEAN_MOTION":"15.06393785","MEAN_ANOMALY":"277.6196","COUNTRY_CODE":"US","CLASSIFICATION_TYPE":"U","MEAN_MOTION_DOT":"-0.00001087","TLE_LINE2":"2 48407  53.0543  46.6539 0001348  82.4946 277.6196 15.06393785 35460","APOAPSIS":"548.166","OBJECT_TYPE":"PAYLOAD","ECCENTRICITY":"0.00013480","REV_AT_EPOCH":"3546","SEMIMAJOR_AXIS":"6925.368","OBJECT_NAME":"STARLINK-2595","INCLINATION":"53.0543","TIME_SYSTEM":"UTC","LAUNCH_DATE":"2021-05-04","CENTER_NAME":"EARTH","DECAY_DATE":null,"EPOCH":"2021-12-22T12:50:48.493536","SITE":"AFETR","MEAN_ELEMENT_THEORY":"SGP4"},{"LAUNCH_DATE":"2021-05-04","TIME_SYSTEM":"UTC","CENTER_NAME":"EARTH","INCLINATION":"53.0547","MEAN_ELEMENT_THEORY":"SGP4","EPOCH":"2021-12-22T12:45:31.814208","DECAY_DATE":null,"SITE":"AFETR","OBJECT_TYPE":"PAYLOAD","ECCENTRICITY":"0.00014370","REV_AT_EPOCH":"3605","MEAN_MOTION_DOT":"0.00017538","APOAPSIS":"548.249","TLE_LINE2":"2 48408  53.0547  46.6673 0001437  83.8759 276.2394 15.06386989 36059","OBJECT_NAME":"STARLINK-2592","SEMIMAJOR_AXIS":"6925.388","NORAD_CAT_ID":"48408","PERIOD":"95.593","MEAN_MOTION":"15.06386989","FILE":"3247668","RA_OF_ASC_NODE":"46.6673","COUNTRY_CODE":"US","CLASSIFICATION_TYPE":"U","MEAN_ANOMALY":"276.2394","RCS_SIZE":"LARGE","PERIAPSIS":"546.258","ARG_OF_PERICENTER":"83.8759","EPHEMERIS_TYPE":"0","OBJECT_ID":"2021-038BH","ELEMENT_SET_NO":"999","GP_ID":"192224528","BSTAR":"0.00119380000000","MEAN_MOTION_DDOT":"0.0000000000000","TLE_LINE1":"1 48408U 21038BH  21356.53161822  .00017538  00000-0  11938-2 0  9991","REF_FRAME":"TEME"},{"CLASSIFICATION_TYPE":"U","COUNTRY_CODE":"US","MEAN_ANOMALY":"285.5677","MEAN_MOTION":"15.06391783","PERIOD":"95.593","NORAD_CAT_ID":"48409","RA_OF_ASC_NODE":"51.5686","FILE":"3247523","MEAN_MOTION_DDOT":"0.0000000000000","TLE_LINE1":"1 48409U 21038BJ  21356.55510494 -.00002989  00000-0 -18190-3 0  9991","GP_ID":"192218285","BSTAR":"-0.00018190000000","REF_FRAME":"TEME","PERIAPSIS":"546.282","ARG_OF_PERICENTER":"74.5465","EPHEMERIS_TYPE":"0","RCS_SIZE":"LARGE","ELEMENT_SET_NO":"999","OBJECT_ID":"2021-038BJ","MEAN_ELEMENT_THEORY":"SGP4","SITE":"AFETR","EPOCH":"2021-12-22T13:19:21.066816","DECAY_DATE":null,"CENTER_NAME":"EARTH","TIME_SYSTEM":"UTC","LAUNCH_DATE":"2021-05-04","INCLINATION":"53.0563","OBJECT_NAME":"STARLINK-2596","SEMIMAJOR_AXIS":"6925.374","REV_AT_EPOCH":"3541","ECCENTRICITY":"0.00013810","OBJECT_TYPE":"PAYLOAD","APOAPSIS":"548.195","TLE_LINE2":"2 48409  53.0563  51.5686 0001381  74.5465 285.5677 15.06391783 35410","MEAN_MOTION_DOT":"-0.00002989"},{"RCS_SIZE":"LARGE","PERIAPSIS":"546.179","EPHEMERIS_TYPE":"0","ARG_OF_PERICENTER":"64.2729","OBJECT_ID":"2021-038BK","ELEMENT_SET_NO":"999","GP_ID":"192225098","BSTAR":"0.00313180000000","MEAN_MOTION_DDOT":"0.0000000000000","TLE_LINE1":"1 48410U 21038BK  21356.91667824  .00046620  00000-0  31318-2 0  9997","REF_FRAME":"TEME","PERIOD":"95.595","NORAD_CAT_ID":"48410","MEAN_MOTION":"15.06355351","FILE":"3247682","RA_OF_ASC_NODE":"359.9420","COUNTRY_CODE":"US","CLASSIFICATION_TYPE":"U","MEAN_ANOMALY":"72.7971","OBJECT_TYPE":"PAYLOAD","ECCENTRICITY":"0.00016920","REV_AT_EPOCH":"3674","MEAN_MOTION_DOT":"0.00046620","APOAPSIS":"548.522","TLE_LINE2":"2 48410  53.0568 359.9420 0001692  64.2729  72.7971 15.06355351 36743","OBJECT_NAME":"STARLINK-2563","SEMIMAJOR_AXIS":"6925.485","TIME_SYSTEM":"UTC","LAUNCH_DATE":"2021-05-04","CENTER_NAME":"EARTH","INCLINATION":"53.0568","MEAN_ELEMENT_THEORY":"SGP4","EPOCH":"2021-12-22T22:00:00.999936","DECAY_DATE":null,"SITE":"AFETR"}];
